{"fetched_at":"2026-07-16T06:42:31.905Z","source":"https://celestrak.org/NORAD/elements/gp.php?GROUP=kuiper&FORMAT=JSON","constellation":"kuiper","records":[{"OBJECT_NAME":"KUIPER-00572","OBJECT_ID":"2026-118F","EPOCH":"2026-07-15T22:00:01.999584","CLASSIFICATION_TYPE":"U","MEAN_MOTION":15.25037363,"ECCENTRICITY":0.00055058,"INCLINATION":51.8734,"RA_OF_ASC_NODE":274.8829,"ARG_OF_PERICENTER":287.3685,"MEAN_ANOMALY":92.5572,"EPHEMERIS_TYPE":0,"NORAD_CAT_ID":69272,"ELEMENT_SET_NO":999,"REV_AT_EPOCH":587,"BSTAR":-0.095942806,"MEAN_MOTION_DOT":-0.02178007,"MEAN_MOTION_DDOT":0},{"OBJECT_NAME":"KUIPER-00581","OBJECT_ID":"2026-118G","EPOCH":"2026-07-15T22:00:01.999584","CLASSIFICATION_TYPE":"U","MEAN_MOTION":15.00818822,"ECCENTRICITY":0.0004618,"INCLINATION":51.8903,"RA_OF_ASC_NODE":276.9252,"ARG_OF_PERICENTER":295.6384,"MEAN_ANOMALY":112.3658,"EPHEMERIS_TYPE":0,"NORAD_CAT_ID":69273,"ELEMENT_SET_NO":999,"REV_AT_EPOCH":574,"BSTAR":-0.0044685375,"MEAN_MOTION_DOT":-0.00057221,"MEAN_MOTION_DDOT":0},{"OBJECT_NAME":"KUIPER-00584","OBJECT_ID":"2026-118H","EPOCH":"2026-07-15T22:00:01.999584","CLASSIFICATION_TYPE":"U","MEAN_MOTION":14.89124841,"ECCENTRICITY":0.00157186,"INCLINATION":51.896,"RA_OF_ASC_NODE":278.9907,"ARG_OF_PERICENTER":313.8545,"MEAN_ANOMALY":101.055,"EPHEMERIS_TYPE":0,"NORAD_CAT_ID":69274,"ELEMENT_SET_NO":999,"REV_AT_EPOCH":567,"BSTAR":-0.0096225028,"MEAN_MOTION_DOT":-0.00090986,"MEAN_MOTION_DDOT":0},{"OBJECT_NAME":"KUIPER-00587","OBJECT_ID":"2026-118J","EPOCH":"2026-07-15T17:59:47.481504","CLASSIFICATION_TYPE":"U","MEAN_MOTION":15.36498827,"ECCENTRICITY":0.00103196,"INCLINATION":51.8634,"RA_OF_ASC_NODE":275.3258,"ARG_OF_PERICENTER":316.7714,"MEAN_ANOMALY":43.2462,"EPHEMERIS_TYPE":0,"NORAD_CAT_ID":69275,"ELEMENT_SET_NO":999,"REV_AT_EPOCH":837,"BSTAR":-0.0053661302,"MEAN_MOTION_DOT":-0.00190113,"MEAN_MOTION_DDOT":0},{"OBJECT_NAME":"KUIPER-00590","OBJECT_ID":"2026-118K","EPOCH":"2026-07-15T22:00:01.999584","CLASSIFICATION_TYPE":"U","MEAN_MOTION":15.10854519,"ECCENTRICITY":0.0000766,"INCLINATION":51.8819,"RA_OF_ASC_NODE":275.4682,"ARG_OF_PERICENTER":331.5573,"MEAN_ANOMALY":179.2356,"EPHEMERIS_TYPE":0,"NORAD_CAT_ID":69276,"ELEMENT_SET_NO":999,"REV_AT_EPOCH":529,"BSTAR":-0.0053567916,"MEAN_MOTION_DOT":-0.00089363,"MEAN_MOTION_DDOT":0},{"OBJECT_NAME":"KUIPER-00592","OBJECT_ID":"2026-118L","EPOCH":"2026-07-15T22:00:01.999584","CLASSIFICATION_TYPE":"U","MEAN_MOTION":15.17945087,"ECCENTRICITY":0.00011133,"INCLINATION":51.875,"RA_OF_ASC_NODE":275.1956,"ARG_OF_PERICENTER":107.8569,"MEAN_ANOMALY":183.2883,"EPHEMERIS_TYPE":0,"NORAD_CAT_ID":69277,"ELEMENT_SET_NO":999,"REV_AT_EPOCH":460,"BSTAR":-0.094164652,"MEAN_MOTION_DOT":-0.01768378,"MEAN_MOTION_DDOT":0},{"OBJECT_NAME":"KUIPER-00593","OBJECT_ID":"2026-118M","EPOCH":"2026-07-15T22:00:01.999584","CLASSIFICATION_TYPE":"U","MEAN_MOTION":15.38744003,"ECCENTRICITY":0.00029707,"INCLINATION":51.8703,"RA_OF_ASC_NODE":274.0453,"ARG_OF_PERICENTER":281.569,"MEAN_ANOMALY":169.0418,"EPHEMERIS_TYPE":0,"NORAD_CAT_ID":69278,"ELEMENT_SET_NO":999,"REV_AT_EPOCH":460,"BSTAR":-0.00044091509,"MEAN_MOTION_DOT":-0.00017514,"MEAN_MOTION_DDOT":0},{"OBJECT_NAME":"KUIPER-00594","OBJECT_ID":"2026-118N","EPOCH":"2026-07-15T13:49:35.187744","CLASSIFICATION_TYPE":"U","MEAN_MOTION":15.37446312,"ECCENTRICITY":0.0001969,"INCLINATION":51.8704,"RA_OF_ASC_NODE":275.6999,"ARG_OF_PERICENTER":62.4336,"MEAN_ANOMALY":297.685,"EPHEMERIS_TYPE":0,"NORAD_CAT_ID":69279,"ELEMENT_SET_NO":999,"REV_AT_EPOCH":835,"BSTAR":0.0003765,"MEAN_MOTION_DOT":0.00013676,"MEAN_MOTION_DDOT":0},{"OBJECT_NAME":"KUIPER-00595","OBJECT_ID":"2026-118P","EPOCH":"2026-07-15T13:53:22.767072","CLASSIFICATION_TYPE":"U","MEAN_MOTION":15.37465777,"ECCENTRICITY":0.0001284,"INCLINATION":51.8703,"RA_OF_ASC_NODE":275.717,"ARG_OF_PERICENTER":1.8279,"MEAN_ANOMALY":358.2712,"EPHEMERIS_TYPE":0,"NORAD_CAT_ID":69280,"ELEMENT_SET_NO":999,"REV_AT_EPOCH":838,"BSTAR":0.00033298,"MEAN_MOTION_DOT":0.00012055,"MEAN_MOTION_DDOT":0},{"OBJECT_NAME":"KUIPER-00596","OBJECT_ID":"2026-118Q","EPOCH":"2026-07-15T22:00:01.999584","CLASSIFICATION_TYPE":"U","MEAN_MOTION":14.89390625,"ECCENTRICITY":0.00111787,"INCLINATION":51.8947,"RA_OF_ASC_NODE":278.8496,"ARG_OF_PERICENTER":298.0867,"MEAN_ANOMALY":216.3192,"EPHEMERIS_TYPE":0,"NORAD_CAT_ID":69281,"ELEMENT_SET_NO":999,"REV_AT_EPOCH":522,"BSTAR":-0.0075488281,"MEAN_MOTION_DOT":-0.00072009,"MEAN_MOTION_DDOT":0},{"OBJECT_NAME":"KUIPER-00597","OBJECT_ID":"2026-118R","EPOCH":"2026-07-15T11:24:35.870688","CLASSIFICATION_TYPE":"U","MEAN_MOTION":15.37785711,"ECCENTRICITY":0.00060572,"INCLINATION":51.8658,"RA_OF_ASC_NODE":276.4965,"ARG_OF_PERICENTER":287.57,"MEAN_ANOMALY":72.4625,"EPHEMERIS_TYPE":0,"NORAD_CAT_ID":69282,"ELEMENT_SET_NO":999,"REV_AT_EPOCH":833,"BSTAR":0.00035014361,"MEAN_MOTION_DOT":0.00012837,"MEAN_MOTION_DDOT":0},{"OBJECT_NAME":"KUIPER-00599","OBJECT_ID":"2026-118S","EPOCH":"2026-07-15T22:00:01.999584","CLASSIFICATION_TYPE":"U","MEAN_MOTION":15.34624202,"ECCENTRICITY":0.00052504,"INCLINATION":51.8694,"RA_OF_ASC_NODE":274.3297,"ARG_OF_PERICENTER":291.0426,"MEAN_ANOMALY":23.1063,"EPHEMERIS_TYPE":0,"NORAD_CAT_ID":69283,"ELEMENT_SET_NO":999,"REV_AT_EPOCH":353,"BSTAR":-0.0010000467,"MEAN_MOTION_DOT":-0.00034305,"MEAN_MOTION_DDOT":0},{"OBJECT_NAME":"KUIPER-00600","OBJECT_ID":"2026-118T","EPOCH":"2026-07-15T13:13:06.961728","CLASSIFICATION_TYPE":"U","MEAN_MOTION":15.37448842,"ECCENTRICITY":0.0007997,"INCLINATION":51.8641,"RA_OF_ASC_NODE":276.2461,"ARG_OF_PERICENTER":290.1489,"MEAN_ANOMALY":69.8637,"EPHEMERIS_TYPE":0,"NORAD_CAT_ID":69284,"ELEMENT_SET_NO":999,"REV_AT_EPOCH":834,"BSTAR":0.00039113,"MEAN_MOTION_DOT":0.00014235,"MEAN_MOTION_DDOT":0},{"OBJECT_NAME":"KUIPER-00601","OBJECT_ID":"2026-118U","EPOCH":"2026-07-15T22:00:01.999584","CLASSIFICATION_TYPE":"U","MEAN_MOTION":15.16666328,"ECCENTRICITY":0.00032913,"INCLINATION":51.8824,"RA_OF_ASC_NODE":275.3547,"ARG_OF_PERICENTER":295.7721,"MEAN_ANOMALY":228.7368,"EPHEMERIS_TYPE":0,"NORAD_CAT_ID":69285,"ELEMENT_SET_NO":999,"REV_AT_EPOCH":589,"BSTAR":-0.10097803,"MEAN_MOTION_DOT":-0.0182314,"MEAN_MOTION_DDOT":0},{"OBJECT_NAME":"KUIPER-00602","OBJECT_ID":"2026-118V","EPOCH":"2026-07-15T22:00:01.999584","CLASSIFICATION_TYPE":"U","MEAN_MOTION":15.37241746,"ECCENTRICITY":0.00025846,"INCLINATION":51.8694,"RA_OF_ASC_NODE":274.0359,"ARG_OF_PERICENTER":292.1415,"MEAN_ANOMALY":161.8962,"EPHEMERIS_TYPE":0,"NORAD_CAT_ID":69286,"ELEMENT_SET_NO":999,"REV_AT_EPOCH":478,"BSTAR":-0.00049193316,"MEAN_MOTION_DOT":-0.00018573,"MEAN_MOTION_DDOT":0},{"OBJECT_NAME":"KUIPER-00603","OBJECT_ID":"2026-118W","EPOCH":"2026-07-15T22:00:01.999584","CLASSIFICATION_TYPE":"U","MEAN_MOTION":15.33915917,"ECCENTRICITY":0.00036916,"INCLINATION":51.8687,"RA_OF_ASC_NODE":274.2487,"ARG_OF_PERICENTER":287.1465,"MEAN_ANOMALY":50.7901,"EPHEMERIS_TYPE":0,"NORAD_CAT_ID":69287,"ELEMENT_SET_NO":999,"REV_AT_EPOCH":571,"BSTAR":-0.0026978218,"MEAN_MOTION_DOT":-0.0008919,"MEAN_MOTION_DDOT":0}]}
