KUIPER-00572            
1 69272U 26118F   26196.91668981 -.02178007  00000+0 -95943-1 0  9993
2 69272  51.8734 274.8829 0005505 287.3685  92.5572 15.25037363  5875
KUIPER-00581            
1 69273U 26118G   26196.91668981 -.00057221  00000+0 -44685-2 0  9994
2 69273  51.8903 276.9252 0004618 295.6384 112.3658 15.00818822  5741
KUIPER-00584            
1 69274U 26118H   26196.91668981 -.00090986  00000+0 -96225-2 0  9997
2 69274  51.8960 278.9907 0015718 313.8545 101.0550 14.89124841  5674
KUIPER-00587            
1 69275U 26118J   26196.74985511 -.00190113  00000+0 -53661-2 0  9990
2 69275  51.8634 275.3258 0010319 316.7714  43.2462 15.36498827  8375
KUIPER-00590            
1 69276U 26118K   26196.91668981 -.00089363  00000+0 -53568-2 0  9999
2 69276  51.8819 275.4682 0000766 331.5573 179.2356 15.10854519  5292
KUIPER-00592            
1 69277U 26118L   26196.91668981 -.01768378  00000+0 -94165-1 0  9998
2 69277  51.8750 275.1956 0001113 107.8569 183.2883 15.17945087  4606
KUIPER-00593            
1 69278U 26118M   26196.91668981 -.00017514  00000+0 -44092-3 0  9993
2 69278  51.8703 274.0453 0002970 281.5690 169.0418 15.38744003  4606
KUIPER-00594            
1 69279U 26118N   26196.57610171  .00013676  00000+0  37650-3 0  9999
2 69279  51.8704 275.6999 0001969  62.4336 297.6850 15.37446312  8355
KUIPER-00595            
1 69280U 26118P   26196.57873573  .00012055  00000+0  33298-3 0  9992
2 69280  51.8703 275.7170 0001284   1.8279 358.2712 15.37465777  8381
KUIPER-00596            
1 69281U 26118Q   26196.91668981 -.00072009  00000+0 -75488-2 0  9999
2 69281  51.8947 278.8496 0011178 298.0867 216.3192 14.89390625  5224
KUIPER-00597            
1 69282U 26118R   26196.47541517  .00012837  00000+0  35014-3 0  9999
2 69282  51.8658 276.4965 0006057 287.5700  72.4625 15.37785711  8333
KUIPER-00599            
1 69283U 26118S   26196.91668981 -.00034305  00000+0 -10000-2 0  9997
2 69283  51.8694 274.3297 0005250 291.0426  23.1063 15.34624202  3538
KUIPER-00600            
1 69284U 26118T   26196.55077502  .00014235  00000+0  39113-3 0  9996
2 69284  51.8641 276.2461 0007997 290.1489  69.8637 15.37448842  8349
KUIPER-00601            
1 69285U 26118U   26196.91668981 -.01823140  00000+0 -10098+0 0  9997
2 69285  51.8824 275.3547 0003291 295.7721 228.7368 15.16666328  5893
KUIPER-00602            
1 69286U 26118V   26196.91668981 -.00018573  00000+0 -49193-3 0  9995
2 69286  51.8694 274.0359 0002584 292.1415 161.8962 15.37241746  4781
KUIPER-00603            
1 69287U 26118W   26196.91668981 -.00089190  00000+0 -26978-2 0  9994
2 69287  51.8687 274.2487 0003691 287.1465  50.7901 15.33915917  5714
